[{"OBJECT_NAME":"STARLINK-32951","OBJECT_ID":"2025-075Q","EPOCH":"2026-03-09T13:03:04.114368","MEAN_MOTION":15.27594769,"ECCENTRICITY":9.892e-5,"INCLINATION":43.0033,"RA_OF_ASC_NODE":271.557,"ARG_OF_PERICENTER":214.87,"MEAN_ANOMALY":145.2087,"EPHEMERIS_TYPE":0,"CLASSIFICATION_TYPE":"U","NORAD_CAT_ID":63562,"ELEMENT_SET_NO":999,"REV_AT_EPOCH":5191,"BSTAR":0.001021077,"MEAN_MOTION_DOT":0.00027955,"MEAN_MOTION_DDOT":0},{"OBJECT_NAME":"CZ-2C R\/B","OBJECT_ID":"2024-007B","EPOCH":"2026-03-09T13:33:21.523680","MEAN_MOTION":15.39758847,"ECCENTRICITY":0.00678111,"INCLINATION":29.0105,"RA_OF_ASC_NODE":269.6864,"ARG_OF_PERICENTER":313.7067,"MEAN_ANOMALY":45.794,"EPHEMERIS_TYPE":0,"CLASSIFICATION_TYPE":"U","NORAD_CAT_ID":58754,"ELEMENT_SET_NO":999,"REV_AT_EPOCH":12080,"BSTAR":0.0004050997,"MEAN_MOTION_DOT":0.00018271,"MEAN_MOTION_DDOT":0}]
